NORAD_CAT_ID,OBJECT_NAME,OBJECT_TYPE,EPOCH,MEAN_MOTION,ECCENTRICITY,INCLINATION,RA_OF_ASC_NODE,ARG_OF_PERICENTER,MEAN_ANOMALY,BSTAR,MEAN_MOTION_DOT,MEAN_MOTION_DDOT,TLE_LINE0,TLE_LINE1,TLE_LINE2,SEMIMAJOR_AXIS,PERIOD,APOGEE,PERIGEE,DECAYED
53152.0,STARLINK-4045,PAYLOAD,2024-07-28 22:24:42,15.08842629,0.0001365,53.2165,287.1491,85.9222,274.1927,0.00022936,3.364e-05,0.0,0 STARLINK-4045,1 53152U 22083W   24210.93382925  .00003364  00000-0  22936-3 0  9992,2 53152  53.2165 287.1491 0001365  85.9222 274.1927 15.08842629112477,6917.872,95.437,540.682,538.793,0.0
53152.0,STARLINK-4045,PAYLOAD,2024-07-29 11:07:48,15.08838206,0.0001467,53.2173,284.769,89.7307,270.3853,8.5758e-05,1.077e-05,0.0,0 STARLINK-4045,1 53152U 22083W   24211.46375188  .00001077  00000-0  85758-4 0  9995,2 53152  53.2173 284.7690 0001467  89.7307 270.3853 15.08838206113180,6917.886,95.438,540.766,538.736,0.0
53152.0,STARLINK-4045,PAYLOAD,2024-07-29 12:43:12,15.08815248,0.0001485,53.217,284.4752,85.6958,274.4204,-0.00021359,-3.683e-05,0.0,0 STARLINK-4045,1 53152U 22083W   24211.53000553 -.00003683  00000-0 -21359-3 0  9997,2 53152  53.2170 284.4752 0001485  85.6958 274.4204 15.08815248112567,6917.956,95.439,540.848,538.794,0.0
53152.0,STARLINK-4045,PAYLOAD,2024-07-29 14:18:35,15.08813862,0.0001496,53.2167,284.1788,81.9297,278.1865,-0.0003707,-6.179e-05,0.0,0 STARLINK-4045,1 53152U 22083W   24211.59624343 -.00006179  00000-0 -37070-3 0  9992,2 53152  53.2167 284.1788 0001496  81.9297 278.1865 15.08813862113202,6917.96,95.439,540.86,538.79,0.0
53152.0,STARLINK-4045,PAYLOAD,2024-07-29 22:15:31,15.08816795,0.0001452,53.2175,282.6925,82.291,277.8247,-0.00023766,-4.066e-05,0.0,0 STARLINK-4045,1 53152U 22083W   24211.92744739 -.00004066  00000-0 -23766-3 0  9991,2 53152  53.2175 282.6925 0001452  82.2910 277.8247 15.08816795112628,6917.951,95.439,540.821,538.812,0.0
53152.0,STARLINK-4045,PAYLOAD,2024-07-30 10:58:36,15.08828622,0.0001252,53.217,280.3117,91.5506,268.5629,8.1349e-05,1.007e-05,0.0,0 STARLINK-4045,1 53152U 22083W   24212.45736969  .00001007  00000-0  81349-4 0  9998,2 53152  53.2170 280.3117 0001252  91.5506 268.5629 15.08828622113335,6917.915,95.438,540.646,538.914,0.0
53152.0,STARLINK-4045,PAYLOAD,2024-07-30 14:09:23,15.08840299,0.0001434,53.2158,279.7173,92.0523,268.0634,0.00063866,9.891e-05,0.0,0 STARLINK-4045,1 53152U 22083W   24212.58985054  .00009891  00000-0  63866-3 0  9995,2 53152  53.2158 279.7173 0001434  92.0523 268.0634 15.08840299112729,6917.879,95.438,540.736,538.752,0.0
53152.0,STARLINK-4045,PAYLOAD,2024-07-30 22:06:19,15.08851484,0.000138,53.2165,278.2297,100.871,259.2438,0.0014691,0.00023177,0.0,0 STARLINK-4045,1 53152U 22083W   24212.92105350  .00023177  00000-0  14691-2 0  9990,2 53152  53.2165 278.2297 0001380 100.8710 259.2438 15.08851484112771,6917.845,95.437,540.665,538.756,0.0
53152.0,STARLINK-4045,PAYLOAD,2024-07-31 14:00:09,15.08885893,0.0001427,53.2158,275.2568,95.2678,264.8477,0.0015993,0.00025289,0.0,0 STARLINK-4045,1 53152U 22083W   24213.58344017  .00025289  00000-0  15993-2 0  9990,2 53152  53.2158 275.2568 0001427  95.2678 264.8477 15.08885893112870,6917.74,95.435,540.592,538.618,0.0
53152.0,STARLINK-4045,PAYLOAD,2024-08-01 10:40:09,15.08875484,0.0001416,53.2161,271.3902,86.9357,273.1797,0.00074772,0.00011643,0.0,0 STARLINK-4045,1 53152U 22083W   24214.44455259  .00011643  00000-0  74772-3 0  9997,2 53152  53.2161 271.3902 0001416  86.9357 273.1797 15.08875484113630,6917.772,95.435,540.616,538.657,0.0
53152.0,STARLINK-4045,PAYLOAD,2024-08-02 10:30:57,15.08836358,0.0001485,53.2165,266.9273,73.6212,286.4944,0.00034328,5.179e-05,0.0,0 STARLINK-4045,1 53152U 22083W   24215.43816155  .00005179  00000-0  34328-3 0  9993,2 53152  53.2165 266.9273 0001485  73.6212 286.4944 15.08836358113788,6917.892,95.438,540.784,538.729,0.0
53152.0,STARLINK-4045,PAYLOAD,2024-08-02 20:03:16,15.08838803,0.0001481,53.2165,265.1437,79.6019,280.514,0.00046849,7.176e-05,0.0,0 STARLINK-4045,1 53152U 22083W   24215.83560263  .00007176  00000-0  46849-3 0  9993,2 53152  53.2165 265.1437 0001481  79.6019 280.5140 15.08838803113216,6917.884,95.438,540.774,538.725,0.0
53152.0,STARLINK-4045,PAYLOAD,2024-08-03 13:32:30,15.08856505,0.0001368,53.2156,261.8758,93.4135,266.7013,0.00066616,0.00010335,0.0,0 STARLINK-4045,1 53152U 22083W   24216.56423713  .00010335  00000-0  66616-3 0  9997,2 53152  53.2156 261.8758 0001368  93.4135 266.7013 15.08856505113328,6917.83,95.437,540.641,538.749,0.0
53152.0,STARLINK-4045,PAYLOAD,2024-08-03 19:54:02,15.08850411,0.0001346,53.2149,260.688,101.2248,258.8895,0.00039214,5.96e-05,0.0,0 STARLINK-4045,1 53152U 22083W   24216.82919782  .00005960  00000-0  39214-3 0  9994,2 53152  53.2149 260.6880 0001346 101.2248 258.8895 15.08850411113995,6917.849,95.437,540.645,538.782,0.0
53152.0,STARLINK-4045,PAYLOAD,2024-08-04 11:47:53,15.08855587,0.000141,53.2151,257.7148,102.6543,257.4606,0.00035715,5.403e-05,0.0,0 STARLINK-4045,1 53152U 22083W   24217.49159317  .00005403  00000-0  35715-3 0  9992,2 53152  53.2151 257.7148 0001410 102.6543 257.4606 15.08855587113463,6917.833,95.437,540.673,538.722,0.0
53152.0,STARLINK-4045,PAYLOAD,2024-08-04 19:44:49,15.08856181,0.0001655,53.2149,256.2256,89.9772,270.141,0.00039002,5.927e-05,0.0,0 STARLINK-4045,1 53152U 22083W   24217.82279378  .00005927  00000-0  39002-3 0  9993,2 53152  53.2149 256.2256 0001655  89.9772 270.1410 15.08856181114148,6917.831,95.437,540.841,538.551,0.0
53152.0,STARLINK-4045,PAYLOAD,2024-08-05 08:27:54,15.08849198,0.0001585,53.2152,253.8458,89.0145,271.1029,0.00010912,1.449e-05,0.0,0 STARLINK-4045,1 53152U 22083W   24218.35271206  .00001449  00000-0  10912-3 0  9998,2 53152  53.2152 253.8458 0001585  89.0145 271.1029 15.08849198114222,6917.852,95.437,540.814,538.621,0.0
53152.0,STARLINK-4045,PAYLOAD,2024-08-05 19:35:36,15.08839806,0.00014,53.2154,251.7629,92.4673,267.6479,-2.9671e-05,-7.6e-06,0.0,0 STARLINK-4045,1 53152U 22083W   24218.81639421 -.00000760  00000-0 -29671-4 0  9996,2 53152  53.2154 251.7629 0001400  92.4673 267.6479 15.08839806114292,6917.881,95.438,540.714,538.777,0.0
53152.0,STARLINK-4045,PAYLOAD,2024-08-06 11:29:28,15.08830311,0.0001515,53.216,248.7869,104.103,256.0131,-0.00014309,-2.564e-05,0.0,0 STARLINK-4045,1 53152U 22083W   24219.47880366 -.00002564  00000-0 -14309-3 0  9990,2 53152  53.2160 248.7869 0001515 104.1030 256.0131 15.08830311114396,6917.91,95.438,540.823,538.727,0.0
53152.0,STARLINK-4045,PAYLOAD,2024-08-07 11:20:15,15.08846915,0.0001459,53.215,244.3294,104.8637,255.2517,0.00017669,2.526e-05,0.0,0 STARLINK-4045,1 53152U 22083W   24220.47240026  .00002526  00000-0  17669-3 0  9993,2 53152  53.2150 244.3294 0001459 104.8637 255.2517 15.08846915114549,6917.859,95.437,540.734,538.715,0.0
53152.0,STARLINK-4045,PAYLOAD,2024-08-08 08:00:16,15.08851837,0.0001435,53.2148,240.4634,100.6167,259.4987,0.00039541,6.013e-05,0.0,0 STARLINK-4045,1 53152U 22083W   24221.33351934  .00006013  00000-0  39541-3 0  9998,2 53152  53.2148 240.4634 0001435 100.6167 259.4987 15.08851837114048,6917.844,95.437,540.702,538.716,0.0
53152.0,STARLINK-4045,PAYLOAD,2024-08-09 04:40:17,15.08840796,0.0001687,53.2158,236.5977,107.1927,252.925,2.0411e-06,-2.56e-06,0.0,0 STARLINK-4045,1 53152U 22083W   24222.19464200 -.00000256  00000-0  20411-5 0  9996,2 53152  53.2158 236.5977 0001687 107.1927 252.9250 15.08840796114807,6917.878,95.438,540.91,538.576,0.0
53152.0,STARLINK-4045,PAYLOAD,2024-08-09 07:51:03,15.088415,0.0001507,53.2161,236.0037,88.3792,271.7373,2.8677e-05,1.68e-06,0.0,0 STARLINK-4045,1 53152U 22083W   24222.32712438  .00000168  00000-0  28677-4 0  9992,2 53152  53.2161 236.0037 0001507  88.3792 271.7373 15.08841500114195,6917.876,95.437,540.783,538.698,0.0
53152.0,STARLINK-4045,PAYLOAD,2024-08-09 17:23:22,15.08841846,0.000149,53.2162,234.2203,88.7701,271.3461,-2.5138e-06,-3.28e-06,0.0,0 STARLINK-4045,1 53152U 22083W   24222.72456418 -.00000328  00000-0 -25138-5 0  9999,2 53152  53.2162 234.2203 0001490  88.7701 271.3461 15.08841846114250,6917.875,95.437,540.771,538.709,0.0
53152.0,STARLINK-4045,PAYLOAD,2024-08-10 07:41:50,15.08846506,0.0001476,53.2162,231.544,88.1646,271.9515,2.2459e-05,7e-07,0.0,0 STARLINK-4045,1 53152U 22083W   24223.32071840  .00000070  00000-0  22459-4 0  9992,2 53152  53.2162 231.5440 0001476  88.1646 271.9515 15.08846506114972,6917.861,95.437,540.747,538.704,0.0
53152.0,STARLINK-4045,PAYLOAD,2024-08-11 10:43:24,15.08835652,0.0001406,53.2161,226.4869,93.9697,266.1456,7.7877e-05,9.52e-06,0.0,0 STARLINK-4045,1 53152U 22083W   24224.44680941  .00000952  00000-0  77877-4 0  9997,2 53152  53.2161 226.4869 0001406  93.9697 266.1456 15.08835652115142,6917.894,95.438,540.731,538.786,0.0
53152.0,STARLINK-4045,PAYLOAD,2024-08-11 17:04:56,15.08839888,0.0001413,53.2165,225.2979,92.8915,267.2239,0.00010476,1.38e-05,0.0,0 STARLINK-4045,1 53152U 22083W   24224.71176720  .00001380  00000-0  10476-3 0  9999,2 53152  53.2165 225.2979 0001413  92.8915 267.2239 15.08839888114554,6917.881,95.438,540.723,538.768,0.0
53152.0,STARLINK-4045,PAYLOAD,2024-08-12 04:12:38,15.08846391,0.0001509,53.2163,223.2158,99.4951,260.6211,0.00017405,2.484e-05,0.0,0 STARLINK-4045,1 53152U 22083W   24225.17544323  .00002484  00000-0  17405-3 0  9993,2 53152  53.2163 223.2158 0001509  99.4951 260.6211 15.08846391115250,6917.861,95.437,540.77,538.682,0.0
53152.0,STARLINK-4045,PAYLOAD,2024-08-12 08:58:47,15.08857422,0.0001527,53.2163,222.324,99.7851,260.3313,0.00045504,6.965e-05,0.0,0 STARLINK-4045,1 53152U 22083W   24225.37415999  .00006965  00000-0  45504-3 0  9990,2 53152  53.2163 222.3240 0001527  99.7851 260.3313 15.08857422114654,6917.827,95.436,540.748,538.636,0.0
53152.0,STARLINK-4045,PAYLOAD,2024-08-13 05:38:47,15.08856475,0.0001894,53.2156,218.4581,134.8462,225.2684,0.0002051,2.979e-05,0.0,0 STARLINK-4045,1 53152U 22083W   24226.23527272  .00002979  00000-0  20510-3 0  9995,2 53152  53.2156 218.4581 0001894 134.8462 225.2684 15.08856475115419,6917.83,95.437,541.005,538.385,0.0
